stk.v.4.3 

BEGIN Ephemeris 
 
NumberOfEphemerisPoints		146 
ScenarioEpoch	    1 Sep 2020  9:42:59.719099403 
InterpolationMethod		Lagrange 
InterpolationOrder		5 
CentralBody				Earth 
CoordinateSystem			TEME 
CoordinateSystemEpoch	  1 Sep 2020  9:42:59.719099403 
DistanceUnit			Kilometers 
 
EphemerisTimePosVel 
 
       0.00000000   -7070.80629559   -1119.45235547       0.03250029  0.082817974 -0.460672923  7.448773003
 END Ephemeris 
